{"fetched_at":"2026-07-15T17:46:44.919Z","source":"https://celestrak.org/NORAD/elements/gp.php?GROUP=kuiper&FORMAT=JSON","constellation":"kuiper","records":[{"OBJECT_NAME":"KUIPER-00629","OBJECT_ID":"2026-151W","EPOCH":"2026-07-15T02:59:59.390016","CLASSIFICATION_TYPE":"U","MEAN_MOTION":15.36960404,"ECCENTRICITY":0.0006704,"INCLINATION":51.8731,"RA_OF_ASC_NODE":180.7656,"ARG_OF_PERICENTER":146.578,"MEAN_ANOMALY":213.5631,"EPHEMERIS_TYPE":0,"NORAD_CAT_ID":69783,"ELEMENT_SET_NO":999,"REV_AT_EPOCH":200,"BSTAR":0.00024633,"MEAN_MOTION_DOT":0.00008667,"MEAN_MOTION_DDOT":0},{"OBJECT_NAME":"KUIPER-00631","OBJECT_ID":"2026-151X","EPOCH":"2026-07-15T03:02:44.694816","CLASSIFICATION_TYPE":"U","MEAN_MOTION":15.36734382,"ECCENTRICITY":0.0007763,"INCLINATION":51.8704,"RA_OF_ASC_NODE":180.7768,"ARG_OF_PERICENTER":154.2136,"MEAN_ANOMALY":205.9239,"EPHEMERIS_TYPE":0,"NORAD_CAT_ID":69784,"ELEMENT_SET_NO":999,"REV_AT_EPOCH":200,"BSTAR":0.00027482,"MEAN_MOTION_DOT":0.00009646,"MEAN_MOTION_DDOT":0},{"OBJECT_NAME":"KUIPER-00634","OBJECT_ID":"2026-151Y","EPOCH":"2026-07-15T04:24:07.434432","CLASSIFICATION_TYPE":"U","MEAN_MOTION":15.37737258,"ECCENTRICITY":0.0003694,"INCLINATION":51.8764,"RA_OF_ASC_NODE":180.4073,"ARG_OF_PERICENTER":136.2486,"MEAN_ANOMALY":223.8794,"EPHEMERIS_TYPE":0,"NORAD_CAT_ID":69785,"ELEMENT_SET_NO":999,"REV_AT_EPOCH":201,"BSTAR":0.00032194,"MEAN_MOTION_DOT":0.00011748,"MEAN_MOTION_DDOT":0},{"OBJECT_NAME":"KUIPER-00639","OBJECT_ID":"2026-151Z","EPOCH":"2026-07-15T03:09:31.586976","CLASSIFICATION_TYPE":"U","MEAN_MOTION":15.35807349,"ECCENTRICITY":0.0009406,"INCLINATION":51.8682,"RA_OF_ASC_NODE":180.8045,"ARG_OF_PERICENTER":161.7192,"MEAN_ANOMALY":198.4134,"EPHEMERIS_TYPE":0,"NORAD_CAT_ID":69786,"ELEMENT_SET_NO":999,"REV_AT_EPOCH":200,"BSTAR":-0.00032893,"MEAN_MOTION_DOT":-0.00012024,"MEAN_MOTION_DDOT":0},{"OBJECT_NAME":"KUIPER-00641","OBJECT_ID":"2026-151AA","EPOCH":"2026-07-15T03:16:18.265728","CLASSIFICATION_TYPE":"U","MEAN_MOTION":15.35112152,"ECCENTRICITY":0.0009594,"INCLINATION":51.8674,"RA_OF_ASC_NODE":180.833,"ARG_OF_PERICENTER":163.4487,"MEAN_ANOMALY":196.6814,"EPHEMERIS_TYPE":0,"NORAD_CAT_ID":69787,"ELEMENT_SET_NO":999,"REV_AT_EPOCH":200,"BSTAR":0.00043448,"MEAN_MOTION_DOT":0.00014696,"MEAN_MOTION_DDOT":0},{"OBJECT_NAME":"KUIPER-00644","OBJECT_ID":"2026-151AB","EPOCH":"2026-07-14T23:56:50.880768","CLASSIFICATION_TYPE":"U","MEAN_MOTION":15.39299515,"ECCENTRICITY":0.0024482,"INCLINATION":51.8743,"RA_OF_ASC_NODE":181.4101,"ARG_OF_PERICENTER":194.9386,"MEAN_ANOMALY":165.0881,"EPHEMERIS_TYPE":0,"NORAD_CAT_ID":69788,"ELEMENT_SET_NO":999,"REV_AT_EPOCH":198,"BSTAR":0.043501,"MEAN_MOTION_DOT":0.01942196,"MEAN_MOTION_DDOT":0},{"OBJECT_NAME":"KUIPER-00646","OBJECT_ID":"2026-151AC","EPOCH":"2026-07-15T03:08:54.284640","CLASSIFICATION_TYPE":"U","MEAN_MOTION":15.35912594,"ECCENTRICITY":0.0009546,"INCLINATION":51.8695,"RA_OF_ASC_NODE":180.8028,"ARG_OF_PERICENTER":164.43,"MEAN_ANOMALY":195.6981,"EPHEMERIS_TYPE":0,"NORAD_CAT_ID":69789,"ELEMENT_SET_NO":999,"REV_AT_EPOCH":200,"BSTAR":-0.000014689,"MEAN_MOTION_DOT":-0.00000912,"MEAN_MOTION_DDOT":0},{"OBJECT_NAME":"KUIPER-00647","OBJECT_ID":"2026-151AD","EPOCH":"2026-07-15T03:13:52.292064","CLASSIFICATION_TYPE":"U","MEAN_MOTION":15.35483388,"ECCENTRICITY":0.0011009,"INCLINATION":51.8652,"RA_OF_ASC_NODE":180.8232,"ARG_OF_PERICENTER":164.3672,"MEAN_ANOMALY":195.7656,"EPHEMERIS_TYPE":0,"NORAD_CAT_ID":69790,"ELEMENT_SET_NO":999,"REV_AT_EPOCH":200,"BSTAR":-0.00097698,"MEAN_MOTION_DOT":-0.00034508,"MEAN_MOTION_DDOT":0},{"OBJECT_NAME":"KUIPER-00662","OBJECT_ID":"2026-151AE","EPOCH":"2026-07-14T11:27:29.410272","CLASSIFICATION_TYPE":"U","MEAN_MOTION":15.36321024,"ECCENTRICITY":0.00082067,"INCLINATION":51.8719,"RA_OF_ASC_NODE":183.9237,"ARG_OF_PERICENTER":150.8768,"MEAN_ANOMALY":209.2677,"EPHEMERIS_TYPE":0,"NORAD_CAT_ID":69791,"ELEMENT_SET_NO":999,"REV_AT_EPOCH":190,"BSTAR":-0.0036493324,"MEAN_MOTION_DOT":-0.00129583,"MEAN_MOTION_DDOT":0}]}
