KUIPER-00629            
1 69783U 26151W   26196.12499294  .00008667  00000+0  24633-3 0  9999
2 69783  51.8731 180.7656 0006704 146.5780 213.5631 15.36960404  2002
KUIPER-00631            
1 69784U 26151X   26196.12690619  .00009646  00000+0  27482-3 0  9997
2 69784  51.8704 180.7768 0007763 154.2136 205.9239 15.36734382  2007
KUIPER-00634            
1 69785U 26151Y   26196.18341938  .00011748  00000+0  32194-3 0  9993
2 69785  51.8764 180.4073 0003694 136.2486 223.8794 15.37737258  2019
KUIPER-00639            
1 69786U 26151Z   26196.13161559 -.00012024  00000+0 -32893-3 0  9994
2 69786  51.8682 180.8045 0009406 161.7192 198.4134 15.35807349  2007
KUIPER-00641            
1 69787U 26151AA  26196.13632252  .00014696  00000+0  43448-3 0  9991
2 69787  51.8674 180.8330 0009594 163.4487 196.6814 15.35112152  2006
KUIPER-00644            
1 69788U 26151AB  26195.99781112  .01942196  00000+0  43501-1 0  9999
2 69788  51.8743 181.4101 0024482 194.9386 165.0881 15.39299515  1980
KUIPER-00646            
1 69789U 26151AC  26196.13118385 -.00000912  00000+0 -14689-4 0  9993
2 69789  51.8695 180.8028 0009546 164.4300 195.6981 15.35912594  2009
KUIPER-00647            
1 69790U 26151AD  26196.13463301 -.00034508  00000+0 -97698-3 0  9994
2 69790  51.8652 180.8232 0011009 164.3672 195.7656 15.35483388  2003
KUIPER-00662            
1 69791U 26151AE  26195.47742373 -.00129583  00000+0 -36493-2 0  9993
2 69791  51.8719 183.9237 0008206 150.8768 209.2677 15.36321024  1909
